H1 CPF  1  DLR 2022 05 31 10  6512 technosat            
H2  1704205 6203    42829 2022 05 31 00 00 00 2022 06 07 00 00 00    60 1 1  0 0 0
H9
10 0 59736  14400.000000  0        996119.351       -107327.338       6881864.098
10 0 59736  14460.000000  0        750998.974       -494174.970       6896461.856
10 0 59736  14520.000000  0        499341.455       -876762.474       6881728.443
10 0 59736  14580.000000  0        242254.387      -1253422.586       6837732.006
10 0 59736  14640.000000  0        -19117.731      -1622523.459       6764664.639
10 0 59736  14700.000000  0       -283598.645      -1982475.770       6662841.491
10 0 59736  14760.000000  0       -549985.698      -2331739.619       6532699.375
10 0 59736  14820.000000  0       -817055.294      -2668831.153       6374794.822
10 0 59736  14880.000000  0      -1083568.457      -2992328.850       6189801.680
10 0 59736  14940.000000  0      -1348276.500      -3300879.533       5978508.370
10 0 59736  15000.000000  0      -1609926.896      -3593204.118       5741814.657
10 0 59736  15060.000000  0      -1867269.226      -3868103.002       5480727.961
10 0 59736  15120.000000  0      -2119061.214      -4124461.136       5196359.215
10 0 59736  15180.000000  0      -2364074.815      -4361252.732       4889918.231
10 0 59736  15240.000000  0      -2601102.293      -4577545.500       4562708.571
10 0 59736  15300.000000  0      -2828962.232      -4772504.450       4216122.030
10 0 59736  15360.000000  0      -3046505.469      -4945395.271       3851632.674
10 0 59736  15420.000000  0      -3252620.892      -5095587.165       3470790.476
10 0 59736  15480.000000  0      -3446241.059      -5222555.169       3075214.679
10 0 59736  15540.000000  0      -3626347.684      -5325882.041       2666586.850
10 0 59736  15600.000000  0      -3791976.948      -5405259.625       2246643.633
10 0 59736  15660.000000  0      -3942224.585      -5460489.680       1817169.224
10 0 59736  15720.000000  0      -4076250.702      -5491484.170       1379987.627
10 0 59736  15780.000000  0      -4193284.304      -5498265.014        936954.722
10 0 59736  15840.000000  0      -4292627.491      -5480963.308        489950.220
10 0 59736  15900.000000  0      -4373659.350      -5439818.047         40869.499
10 0 59736  15960.000000  0      -4435839.467      -5375174.314       -408384.652
10 0 59736  16020.000000  0      -4478711.039      -5287480.958       -855910.309
10 0 59736  16080.000000  0      -4501903.572      -5177287.751      -1299814.677
10 0 59736  16140.000000  0      -4505135.145      -5045242.060      -1738222.246
10 0 59736  16200.000000  0      -4488214.244      -4892085.075      -2169282.840
10 0 59736  16260.000000  0      -4451041.152      -4718647.606      -2591179.488
10 0 59736  16320.000000  0      -4393608.887      -4525845.500      -3002136.086
10 0 59736  16380.000000  0      -4316003.700      -4314674.724      -3400424.830
10 0 59736  16440.000000  0      -4218405.126      -4086206.105      -3784373.376
10 0 59736  16500.000000  0      -4101085.607      -3841579.817      -4152371.704
10 0 59736  16560.000000  0      -3964409.704      -3581999.598      -4502878.692
10 0 59736  16620.000000  0      -3808832.867      -3308726.722      -4834428.345
10 0 59736  16680.000000  0      -3634899.789      -3023073.788      -5145635.645
10 0 59736  16740.000000  0      -3443242.361      -2726398.368      -5435202.008
10 0 59736  16800.000000  0      -3234577.258      -2420096.547      -5701920.349
10 0 59736  16860.000000  0      -3009703.185      -2105596.386      -5944679.779
10 0 59736  16920.000000  0      -2769497.737      -1784351.291      -6162469.913
10 0 59736  16980.000000  0      -2514913.888      -1457833.355      -6354384.726
10 0 59736  17040.000000  0      -2246976.154      -1127526.711      -6519625.969
10 0 59736  17100.000000  0      -1966776.471       -794920.914      -6657506.125
10 0 59736  17160.000000  0      -1675469.779       -461504.388      -6767450.931
10 0 59736  17220.000000  0      -1374269.399       -128757.986      -6849001.460
10 0 59736  17280.000000  0      -1064442.168        201851.336      -6901815.869
10 0 59736  17340.000000  0       -747303.260        528876.759      -6925670.780
10 0 59736  17400.000000  0       -424210.777        850897.777      -6920462.164
10 0 59736  17460.000000  0        -96560.158       1166526.164      -6886205.733
10 0 59736  17520.000000  0        234221.548       1474411.690      -6823037.009
10 0 59736  17580.000000  0        566681.668       1773247.780      -6731211.123
10 0 59736  17640.000000  0        899348.196       2061777.028      -6611101.997
10 0 59736  17700.000000  0       1230736.138       2338796.378      -6463200.987
10 0 59736  17760.000000  0       1559353.910       2603162.096      -6288115.227
10 0 59736  17820.000000  0       1883709.932       2853794.579      -6086565.525
10 0 59736  17880.000000  0       2202319.312       3089682.775      -5859383.699
10 0 59736  17940.000000  0       2513710.534       3309888.296      -5607509.551
10 0 59736  18000.000000  0       2816432.166       3513549.276      -5331987.446
10 0 59736  18060.000000  0       3109059.644       3699883.971      -5033962.441
10 0 59736  18120.000000  0       3390202.039       3868193.976      -4714675.926
10 0 59736  18180.000000  0       3658508.774       4017867.074      -4375460.830
10 0 59736  18240.000000  0       3912676.232       4148379.710      -4017736.395
10 0 59736  18300.000000  0       4151454.283       4259299.071      -3643002.539
10 0 59736  18360.000000  0       4373652.642       4350284.738      -3252833.754
10 0 59736  18420.000000  0       4578146.976       4421089.890      -2848872.618
10 0 59736  18480.000000  0       4763884.743       4471562.047      -2432823.008
10 0 59736  18540.000000  0       4929890.846       4501643.422      -2006443.017
10 0 59736  18600.000000  0       5075273.004       4511370.785      -1571537.444
10 0 59736  18660.000000  0       5199226.658       4500874.819      -1129950.012
10 0 59736  18720.000000  0       5301039.498       4470379.043       -683555.421
10 0 59736  18780.000000  0       5380095.581       4420198.273       -234251.182
10 0 59736  18840.000000  0       5435878.994       4350736.646        216050.650
10 0 59736  18900.000000  0       5467977.107       4262485.211        665431.895
10 0 59736  18960.000000  0       5476083.311       4156019.018       1111976.748
10 0 59736  19020.000000  0       5459999.242       4031993.787       1553780.264
10 0 59736  19080.000000  0       5419636.482       3891142.176       1988956.866
10 0 59736  19140.000000  0       5355017.614       3734269.652       2415648.780
10 0 59736  19200.000000  0       5266276.726       3562250.037       2832034.281
10 0 59736  19260.000000  0       5153659.361       3376020.721       3236335.796
10 0 59736  19320.000000  0       5017521.916       3176577.572       3626827.769
10 0 59736  19380.000000  0       4858330.480       2964969.573       4001844.277
10 0 59736  19440.000000  0       4676659.050       2742293.145       4359786.283
10 0 59736  19500.000000  0       4473187.410       2509686.420       4699128.382
10 0 59736  19560.000000  0       4248698.498       2268323.465       5018425.615
10 0 59736  19620.000000  0       4004074.961       2019408.191       5316319.741
10 0 59736  19680.000000  0       3740295.401       1764168.238       5591544.916
10 0 59736  19740.000000  0       3458430.198       1503848.776       5842933.025
10 0 59736  19800.000000  0       3159636.878       1239706.285       6069418.487
10 0 59736  19860.000000  0       2845155.103        973002.389       6270042.566
10 0 59736  19920.000000  0       2516301.328        704997.807       6443957.212
10 0 59736  19980.000000  0       2174463.134        436946.404       6590428.508
10 0 59736  20040.000000  0       1821093.215        170089.293       6708839.658
10 0 59736  20100.000000  0       1457703.057        -94350.933       6798693.492
10 0 59736  20160.000000  0       1085856.277       -355175.864       6859614.447
10 0 59736  20220.000000  0        707161.745       -611216.786       6891349.922
10 0 59736  20280.000000  0        323266.557       -861339.892       6893771.163
10 0 59736  20340.000000  0        -64151.232      -1104451.316       6866873.724
10 0 59736  20400.000000  0       -453390.001      -1339501.951       6810777.346
10 0 59736  20460.000000  0       -842732.100      -1565492.003       6725725.347
10 0 59736  20520.000000  0      -1230451.468      -1781475.245       6612083.471
10 0 59736  20580.000000  0      -1614821.243      -1986562.946       6470338.274
10 0 59736  20640.000000  0      -1994121.423      -2179927.480       6301095.115
10 0 59736  20700.000000  0      -2366646.549      -2360805.672       6105075.725
10 0 59736  20760.000000  0      -2730713.459      -2528501.891       5883115.349
10 0 59736  20820.000000  0      -3084669.120      -2682390.823       5636159.302
10 0 59736  20880.000000  0      -3426898.307      -2821919.820       5365258.909
10 0 59736  20940.000000  0      -3755831.056      -2946610.877       5071567.047
10 0 59736  21000.000000  0      -4069949.985      -3056062.266       4756333.276
10 0 59736  21060.000000  0      -4367797.424      -3149949.752       4420898.537
10 0 59736  21120.000000  0      -4647982.304      -3228027.426       4066689.466
10 0 59736  21180.000000  0      -4909186.769      -3290128.159       3695212.328
10 0 59736  21240.000000  0      -5150172.501      -3336163.667       3308046.631
10 0 59736  21300.000000  0      -5369786.750      -3366124.209       2906838.400
10 0 59736  21360.000000  0      -5566968.028      -3380077.909       2493293.091
10 0 59736  21420.000000  0      -5740751.343      -3378169.683       2069168.178
10 0 59736  21480.000000  0      -5890272.989      -3360619.760       1636265.513
10 0 59736  21540.000000  0      -6014774.864      -3327721.806       1196423.466
99
